{"type": "FeatureCollection", "features": [ {"type": "Feature", "properties": {"norad_id": 52984, "name": "COSMOS 2557 (706K)", "group": "gnss", "lat": 54.513249609827064, "lon": 99.13480738402927, "alt_km": 19157.005236331723, "timestamp": "2025-12-03T13:52:09.805260+00:00", "meta": {"OBJECT_NAME": "COSMOS 2557 (706K)", "OBJECT_ID": "2022-075A", "EPOCH": "2025-12-01T01:56:28.375008", "MEAN_MOTION": 2.13101767, "ECCENTRICITY": 0.00137561, "INCLINATION": 64.4163, "RA_OF_ASC_NODE": 321.4618, "ARG_OF_PERICENTER": 276.3647, "MEAN_ANOMALY": 83.4921, "EPHEMERIS_TYPE": 0, "CLASSIFICATION_TYPE": "U", "NORAD_CAT_ID": 52984, "ELEMENT_SET_NO": 999, "REV_AT_EPOCH": 2649, "BSTAR": 0, "MEAN_MOTION_DOT": -2.7e-07, "MEAN_MOTION_DDOT": 0}, "tle": {"line1": "1 52984U 22075A   25335.08088397 -.00000027  00000+0  00000+0 0  9993", "line2": "2 52984  64.4163 321.4618 0013756 276.3647  83.4921  2.13101767 26492"}}, "geometry": {"type": "Point", "coordinates": [99.13480738402927, 54.513249609827064]}}, {"type": "Feature", "properties": {"norad_id": 54031, "name": "COSMOS 2559 (707K)", "group": "gnss", "lat": -60.3168758989816, "lon": -161.22240858877555, "alt_km": 19121.775609177603, "timestamp": "2025-12-03T13:52:09.805271+00:00", "meta": {"OBJECT_NAME": "COSMOS 2559 (707K)", "OBJECT_ID": "2022-130A", "EPOCH": "2025-12-03T05:54:42.850656", "MEAN_MOTION": 2.13101242, "ECCENTRICITY": 0.00120483, "INCLINATION": 64.3873, "RA_OF_ASC_NODE": 321.4753, "ARG_OF_PERICENTER": 192.7685, "MEAN_ANOMALY": 167.2057, "EPHEMERIS_TYPE": 0, "CLASSIFICATION_TYPE": "U", "NORAD_CAT_ID": 54031, "ELEMENT_SET_NO": 999, "REV_AT_EPOCH": 2451, "BSTAR": 0, "MEAN_MOTION_DOT": -4.1e-07, "MEAN_MOTION_DDOT": 0}, "tle": {"line1": "1 54031U 22130A   25337.24632929 -.00000041  00000+0  00000+0 0  9992", "line2": "2 54031  64.3873 321.4753 0012048 192.7685 167.2057  2.13101242 24510"}}, "geometry": {"type": "Point", "coordinates": [-161.22240858877555, -60.3168758989816]}}, {"type": "Feature", "properties": {"norad_id": 54377, "name": "COSMOS 2564 (761)", "group": "gnss", "lat": 12.460578674103692, "lon": -154.80742926302273, "alt_km": 19150.52271866458, "timestamp": "2025-12-03T13:52:09.805284+00:00", "meta": {"OBJECT_NAME": "COSMOS 2564 (761)", "OBJECT_ID": "2022-161A", "EPOCH": "2025-12-03T02:10:28.661664", "MEAN_MOTION": 2.13101969, "ECCENTRICITY": 0.00087165, "INCLINATION": 64.7377, "RA_OF_ASC_NODE": 199.2195, "ARG_OF_PERICENTER": 206.2695, "MEAN_ANOMALY": 153.783, "EPHEMERIS_TYPE": 0, "CLASSIFICATION_TYPE": "U", "NORAD_CAT_ID": 54377, "ELEMENT_SET_NO": 999, "REV_AT_EPOCH": 2345, "BSTAR": 0, "MEAN_MOTION_DOT": 1.07e-06, "MEAN_MOTION_DDOT": 0}, "tle": {"line1": "1 54377U 22161A   25337.09060951  .00000107  00000+0  00000+0 0  9994", "line2": "2 54377  64.7377 199.2195 0008716 206.2695 153.7830  2.13101969 23453"}}, "geometry": {"type": "Point", "coordinates": [-154.80742926302273, 12.460578674103692]}}, {"type": "Feature", "properties": {"norad_id": 55268, "name": "GPS BIII-6  (PRN 28)", "group": "gnss", "lat": 37.61418162892909, "lon": -171.2487980473053, "alt_km": 20172.192513996983, "timestamp": "2025-12-03T13:52:09.805296+00:00", "meta": {"OBJECT_NAME": "GPS BIII-6  (PRN 28)", "OBJECT_ID": "2023-009A", "EPOCH": "2025-12-02T00:29:31.953408", "MEAN_MOTION": 2.00556444, "ECCENTRICITY": 0.00034715, "INCLINATION": 55.1057, "RA_OF_ASC_NODE": 156.2669, "ARG_OF_PERICENTER": 359.2649, "MEAN_ANOMALY": 4.3682, "EPHEMERIS_TYPE": 0, "CLASSIFICATION_TYPE": "U", "NORAD_CAT_ID": 55268, "ELEMENT_SET_NO": 999, "REV_AT_EPOCH": 2129, "BSTAR": 0, "MEAN_MOTION_DOT": 1.22e-06, "MEAN_MOTION_DDOT": 0}, "tle": {"line1": "1 55268U 23009A   25336.02050872  .00000122  00000+0  00000+0 0  9996", "line2": "2 55268  55.1057 156.2669 0003471 359.2649   4.3682  2.00556444 21296"}}, "geometry": {"type": "Point", "coordinates": [-171.2487980473053, 37.61418162892909]}}, {"type": "Feature", "properties": {"norad_id": 56564, "name": "BEIDOU-3 G4 (C62)", "group": "gnss", "lat": 0.5641101369453568, "lon": 80.71240188688873, "alt_km": 35787.683288737935, "timestamp": "2025-12-03T13:52:09.805307+00:00", "meta": {"OBJECT_NAME": "BEIDOU-3 G4 (C62)", "OBJECT_ID": "2023-066A", "EPOCH": "2025-12-03T08:08:38.649408", "MEAN_MOTION": 1.0027097, "ECCENTRICITY": 0.0003346, "INCLINATION": 0.837, "RA_OF_ASC_NODE": 301.2389, "ARG_OF_PERICENTER": 235.16, "MEAN_ANOMALY": 178.2612, "EPHEMERIS_TYPE": 0, "CLASSIFICATION_TYPE": "U", "NORAD_CAT_ID": 56564, "ELEMENT_SET_NO": 999, "REV_AT_EPOCH": 943, "BSTAR": 0, "MEAN_MOTION_DOT": -9.2e-07, "MEAN_MOTION_DDOT": 0}, "tle": {"line1": "1 56564U 23066A   25337.33933622 -.00000092  00000+0  00000+0 0  9994", "line2": "2 56564   0.8370 301.2389 0003346 235.1600 178.2612  1.00270970  9434"}}, "geometry": {"type": "Point", "coordinates": [80.71240188688873, 0.5641101369453568]}}, {"type": "Feature", "properties": {"norad_id": 56759, "name": "NVS-01 (IRNSS-1J)", "group": "gnss", "lat": 1.0018594721518246, "lon": 50.283652302010815, "alt_km": 35819.55450188561, "timestamp": "2025-12-03T13:52:09.805319+00:00", "meta": {"OBJECT_NAME": "NVS-01 (IRNSS-1J)", "OBJECT_ID": "2023-076A", "EPOCH": "2025-12-03T07:31:26.538240", "MEAN_MOTION": 1.00267297, "ECCENTRICITY": 0.00086168, "INCLINATION": 2.6434, "RA_OF_ASC_NODE": 251.9459, "ARG_OF_PERICENTER": 6.1555, "MEAN_ANOMALY": 56.7087, "EPHEMERIS_TYPE": 0, "CLASSIFICATION_TYPE": "U", "NORAD_CAT_ID": 56759, "ELEMENT_SET_NO": 999, "REV_AT_EPOCH": 915, "BSTAR": 0, "MEAN_MOTION_DOT": -3.15e-06, "MEAN_MOTION_DDOT": 0}, "tle": {"line1": "1 56759U 23076A   25337.31350160 -.00000315  00000+0  00000+0 0  9997", "line2": "2 56759   2.6434 251.9459 0008616   6.1555  56.7087  1.00267297  9153"}}, "geometry": {"type": "Point", "coordinates": [50.283652302010815, 1.0018594721518246]}}, {"type": "Feature", "properties": {"norad_id": 57517, "name": "COSMOS 2569 (703K)", "group": "gnss", "lat": 3.227839287423529, "lon": 80.71580850069198, "alt_km": 19123.897514709875, "timestamp": "2025-12-03T13:52:09.805330+00:00", "meta": {"OBJECT_NAME": "COSMOS 2569 (703K)", "OBJECT_ID": "2023-114A", "EPOCH": "2025-12-01T05:26:50.828352", "MEAN_MOTION": 2.13103848, "ECCENTRICITY": 0.0010073, "INCLINATION": 65.188, "RA_OF_ASC_NODE": 79.3026, "ARG_OF_PERICENTER": 287.0136, "MEAN_ANOMALY": 72.876, "EPHEMERIS_TYPE": 0, "CLASSIFICATION_TYPE": "U", "NORAD_CAT_ID": 57517, "ELEMENT_SET_NO": 999, "REV_AT_EPOCH": 1804, "BSTAR": 0, "MEAN_MOTION_DOT": -1.2e-07, "MEAN_MOTION_DDOT": 0}, "tle": {"line1": "1 57517U 23114A   25335.22697718 -.00000012  00000+0  00000+0 0  9998", "line2": "2 57517  65.1880  79.3026 0010073 287.0136  72.8760  2.13103848 18043"}}, "geometry": {"type": "Point", "coordinates": [80.71580850069198, 3.227839287423529]}}, {"type": "Feature", "properties": {"norad_id": 58654, "name": "BEIDOU-3 M28 (C50)", "group": "gnss", "lat": 0.18342906482448962, "lon": -111.21280682529881, "alt_km": 21528.012069406534, "timestamp": "2025-12-03T13:52:09.805341+00:00", "meta": {"OBJECT_NAME": "BEIDOU-3 M28 (C50)", "OBJECT_ID": "2023-207A", "EPOCH": "2025-12-02T18:32:49.254720", "MEAN_MOTION": 1.86229565, "ECCENTRICITY": 0.00020071, "INCLINATION": 55.5759, "RA_OF_ASC_NODE": 68.9391, "ARG_OF_PERICENTER": 265.1815, "MEAN_ANOMALY": 94.7983, "EPHEMERIS_TYPE": 0, "CLASSIFICATION_TYPE": "U", "NORAD_CAT_ID": 58654, "ELEMENT_SET_NO": 999, "REV_AT_EPOCH": 1318, "BSTAR": 0, "MEAN_MOTION_DOT": -4.9e-07, "MEAN_MOTION_DDOT": 0}, "tle": {"line1": "1 58654U 23207A   25336.77279230 -.00000049  00000+0  00000+0 0  9990", "line2": "2 58654  55.5759  68.9391 0002007 265.1815  94.7983  1.86229565 13186"}}, "geometry": {"type": "Point", "coordinates": [-111.21280682529881, 0.18342906482448962]}}, {"type": "Feature", "properties": {"norad_id": 58655, "name": "BEIDOU-3 M26 (C48)", "group": "gnss", "lat": -35.40605001298655, "lon": 39.776264462759414, "alt_km": 21528.32524258307, "timestamp": "2025-12-03T13:52:09.805352+00:00", "meta": {"OBJECT_NAME": "BEIDOU-3 M26 (C48)", "OBJECT_ID": "2023-207B", "EPOCH": "2025-12-03T02:34:45.227424", "MEAN_MOTION": 1.86231091, "ECCENTRICITY": 0.00034591, "INCLINATION": 55.5782, "RA_OF_ASC_NODE": 68.9139, "ARG_OF_PERICENTER": 250.5367, "MEAN_ANOMALY": 109.429, "EPHEMERIS_TYPE": 0, "CLASSIFICATION_TYPE": "U", "NORAD_CAT_ID": 58655, "ELEMENT_SET_NO": 999, "REV_AT_EPOCH": 1317, "BSTAR": 0, "MEAN_MOTION_DOT": -5e-07, "MEAN_MOTION_DDOT": 0}, "tle": {"line1": "1 58655U 23207B   25337.10746791 -.00000050  00000+0  00000+0 0  9992", "line2": "2 58655  55.5782  68.9139 0003459 250.5367 109.4290  1.86231091 13176"}}, "geometry": {"type": "Point", "coordinates": [39.776264462759414, -35.40605001298655]}}, {"type": "Feature", "properties": {"norad_id": 59598, "name": "GSAT0225 (GALILEO 29)", "group": "gnss", "lat": 42.30884010410277, "lon": 146.1368920985353, "alt_km": 23219.834254333564, "timestamp": "2025-12-03T13:52:09.805363+00:00", "meta": {"OBJECT_NAME": "GSAT0225 (GALILEO 29)", "OBJECT_ID": "2024-079A", "EPOCH": "2025-12-01T03:29:20.871744", "MEAN_MOTION": 1.70474544, "ECCENTRICITY": 0.0002155, "INCLINATION": 54.9941, "RA_OF_ASC_NODE": 106.6197, "ARG_OF_PERICENTER": 171.5653, "MEAN_ANOMALY": 190.7741, "EPHEMERIS_TYPE": 0, "CLASSIFICATION_TYPE": "U", "NORAD_CAT_ID": 59598, "ELEMENT_SET_NO": 999, "REV_AT_EPOCH": 994, "BSTAR": 0, "MEAN_MOTION_DOT": 4.1e-07, "MEAN_MOTION_DDOT": 0}, "tle": {"line1": "1 59598U 24079A   25335.14538046  .00000041  00000+0  00000+0 0  9990", "line2": "2 59598  54.9941 106.6197 0002155 171.5653 190.7741  1.70474544  9948"}}, "geometry": {"type": "Point", "coordinates": [146.1368920985353, 42.30884010410277]}}]}